ORBCOMM FM115 [+]       
1 41186U 15081H   23222.46404559  .00000911  00000+0  22443-3 0  9991
2 41186  47.0007  10.6564 0001301 225.5984 134.4796 14.59815805408813
ORBCOMM FM108 [+]       
1 41187U 15081J   23223.32525809  .00000872  00000+0  23489-3 0  9997
2 41187  47.0056  52.3744 0002108 106.9644 253.1471 14.55815786408321
ORBCOMM FM117 [+]       
1 41188U 15081K   23222.80983829  .00000866  00000+0  23340-3 0  9999
2 41188  47.0016  53.7768 0002809 112.8217 247.2964 14.55815017408260
ORBCOMM FM116 [+]       
1 41189U 15081L   23222.79987899  .00000763  00000+0  21024-3 0  9992
2 41189  47.0017 143.6285 0001855 215.7708 144.3052 14.55815620407098
